{
    "links": {
        "self": "http://www.neowsapp.com/rest/v1/neo/3747993?api_key=iIulBulltgU6a56xZRHN4H3l9WmuAYTsLGpBGhQ2"
    },
    "id": "3747993",
    "neo_reference_id": "3747993",
    "name": "(2016 FZ2)",
    "designation": "2016 FZ2",
    "nasa_jpl_url": "http://ssd.jpl.nasa.gov/sbdb.cgi?sstr=3747993",
    "absolute_magnitude_h": 24.6,
    "estimated_diameter": {
        "kilometers": {
            "estimated_diameter_min": 0.0319561887,
            "estimated_diameter_max": 0.0714562102
        },
        "meters": {
            "estimated_diameter_min": 31.9561886721,
            "estimated_diameter_max": 71.4562101727
        },
        "miles": {
            "estimated_diameter_min": 0.0198566489,
            "estimated_diameter_max": 0.0444008168
        },
        "feet": {
            "estimated_diameter_min": 104.8431420431,
            "estimated_diameter_max": 234.436392583
        }
    },
    "is_potentially_hazardous_asteroid": false,
    "close_approach_data": [
        {
            "close_approach_date": "2016-03-22",
            "close_approach_date_full": "2016-Mar-22 22:50",
            "epoch_date_close_approach": 1458687000000,
            "relative_velocity": {
                "kilometers_per_second": "7.9895857423",
                "kilometers_per_hour": "28762.5086723733",
                "miles_per_hour": "17871.9043470089"
            },
            "miss_distance": {
                "astronomical": "0.0622209579",
                "lunar": "24.2039526231",
                "kilometers": "9308122.771199673",
                "miles": "5783799.2916865674"
            },
            "orbiting_body": "Earth"
        }
    ],
    "orbital_data": {
        "orbit_id": "11",
        "orbit_determination_date": "2017-04-06 08:27:19",
        "first_observation_date": "2016-03-17",
        "last_observation_date": "2016-04-01",
        "data_arc_in_days": 15,
        "observations_used": 82,
        "orbit_uncertainty": "8",
        "minimum_orbit_intersection": ".0578534",
        "jupiter_tisserand_invariant": "3.633",
        "epoch_osculation": "2457468.5",
        "eccentricity": ".4832673302009008",
        "semi_major_axis": "2.036113048523304",
        "inclination": "10.35789531331657",
        "ascending_node_longitude": "8.319609392224681",
        "orbital_period": "1061.209813725589",
        "perihelion_distance": "1.05212613157623",
        "perihelion_argument": "170.1897152972185",
        "aphelion_distance": "3.020099965470379",
        "perihelion_time": "2457465.885286233627",
        "mean_anomaly": ".8870036289898876",
        "mean_motion": ".3392354606448165",
        "equinox": "J2000",
        "orbit_class": {
            "orbit_class_type": "AMO",
            "orbit_class_description": "Near-Earth asteroid orbits similar to that of 1221 Amor",
            "orbit_class_range": "1.017 AU < q (perihelion) < 1.3 AU"
        }
    },
    "is_sentry_object": false
}